ORBCOMM-X [-]           
1 21576U 91050C   23335.75195881  .00000843  00000+0  26881-3 0  9998
2 21576  98.4168  40.9586 0004821  89.6517 270.5225 14.42278221700870
ORBCOMM FM01 [-]        
1 23545U 95017A   23335.56057113  .00007940  00000+0  11211-2 0  9992
2 23545  69.9695  24.5047 0001566  75.1448 284.9874 14.77504967528933
ORBCOMM FM02 [-]        
1 23546U 95017B   23335.61374144  .00009671  00000+0  13767-2 0  9996
2 23546  69.9715  43.5159 0003882  68.9607 291.1956 14.77065806528599
ORBCOMM FM08 [-]        
1 25112U 97084A   23334.69981653  .00003316  00000+0  10518-2 0  9990
2 25112  45.0129 188.1326 0006963 281.9765  78.0304 14.41634384359800
ORBCOMM FM10 [-]        
1 25113U 97084B   23335.04490662  .00002553  00000+0  82122-3 0  9999
2 25113  45.0139 188.2332 0004627 251.5064 108.5283 14.41568761535008
ORBCOMM FM11 [+]        
1 25114U 97084C   23335.25863265  .00002758  00000+0  88558-3 0  9992
2 25114  45.0121 187.1603 0005199 253.3699 106.6580 14.41460822360002
ORBCOMM FM12 [-]        
1 25115U 97084D   23335.70053096  .00002782  00000+0  89303-3 0  9992
2 25115  45.0134 184.7048 0004387 256.9918 103.0442 14.41443176359867
ORBCOMM FM09 [-]        
1 25116U 97084E   23335.43099465  .00002828  00000+0  90762-3 0  9995
2 25116  45.0138 186.6318 0005655 237.9761 122.0539 14.41413490360032
